{
  "type": "FeatureCollection",
  "features": [
    {
      "type": "Feature",
      "properties": {
        "titulo": "CVE 2839986 MINISTERIO DE AGRICULTURA S",
        "fuente": "https://www.diariooficial.interior.gob.cl/publicaciones/2026/07/25/44508/01/2839986.pdf",
        "fecha": "2026-07-25",
        "vertice_count": 2
      },
      "geometry": {
        "type": "Polygon",
        "coordinates": [
          [
            [
              -76.621847,
              -27.364692
            ],
            [
              -70.619652,
              -27.325012
            ],
            [
              -76.621847,
              -27.364692
            ]
          ]
        ]
      }
    }
  ]
}