{
  "type": "FeatureCollection",
  "features": [
    {
      "type": "Feature",
      "properties": {
        "titulo": "CVE 2848068 MINISTERIO DE AGRICULTURA S",
        "fuente": "https://www.diariooficial.interior.gob.cl/publicaciones/2026/08/04/44516/01/2848068.pdf",
        "fecha": "2026-08-04",
        "vertice_count": 1
      },
      "geometry": {
        "type": "Polygon",
        "coordinates": [
          [
            [
              -76.848403,
              -33.682985
            ],
            [
              -76.848403,
              -33.682985
            ]
          ]
        ]
      }
    }
  ]
}