{
  "type": "FeatureCollection",
  "features": [
    {
      "type": "Feature",
      "properties": {
        "titulo": "CVE 2870736 MINISTERIO DE AGRICULTURA S",
        "fuente": "https://www.diariooficial.interior.gob.cl/publicaciones/2026/09/23/44556/01/2870736.pdf",
        "fecha": "2026-09-23",
        "vertice_count": 2
      },
      "geometry": {
        "type": "Polygon",
        "coordinates": [
          [
            [
              -76.591145,
              -27.485399
            ],
            [
              -70.613853,
              -27.447707
            ],
            [
              -76.591145,
              -27.485399
            ]
          ]
        ]
      }
    }
  ]
}