{
  "type": "FeatureCollection",
  "features": [
    {
      "type": "Feature",
      "properties": {
        "titulo": "CVE 2870737 MINISTERIO DE AGRICULTURA S",
        "fuente": "https://www.diariooficial.interior.gob.cl/publicaciones/2026/09/23/44556/01/2870737.pdf",
        "fecha": "2026-09-23",
        "vertice_count": 2
      },
      "geometry": {
        "type": "Polygon",
        "coordinates": [
          [
            [
              -70.369394,
              -27.435413
            ],
            [
              -76.35282,
              -27.445125
            ],
            [
              -70.369394,
              -27.435413
            ]
          ]
        ]
      }
    }
  ]
}